[{"OBJECT_NAME":"YAOGAN-30 07C","OBJECT_ID":"2020-021C","EPOCH":"2026-03-09T23:27:46.361088","MEAN_MOTION":15.02093061,"ECCENTRICITY":0.00023968,"INCLINATION":34.9952,"RA_OF_ASC_NODE":93.0026,"ARG_OF_PERICENTER":261.0656,"MEAN_ANOMALY":98.9781,"EPHEMERIS_TYPE":0,"CLASSIFICATION_TYPE":"U","NORAD_CAT_ID":45462,"ELEMENT_SET_NO":999,"REV_AT_EPOCH":32548,"BSTAR":0.00030590838,"MEAN_MOTION_DOT":4.073e-5,"MEAN_MOTION_DDOT":0},{"OBJECT_NAME":"QPS-SAR-9 (SUSANOO-I)","OBJECT_ID":"2025-050A","EPOCH":"2026-03-09T22:44:21.680160","MEAN_MOTION":15.02099025,"ECCENTRICITY":0.00041027,"INCLINATION":42.0195,"RA_OF_ASC_NODE":290.2117,"ARG_OF_PERICENTER":235.6113,"MEAN_ANOMALY":124.4326,"EPHEMERIS_TYPE":0,"CLASSIFICATION_TYPE":"U","NORAD_CAT_ID":63205,"ELEMENT_SET_NO":999,"REV_AT_EPOCH":5403,"BSTAR":0.00053180523,"MEAN_MOTION_DOT":6.925e-5,"MEAN_MOTION_DDOT":0}]
